[{"OBJECT_NAME":"ONEWEB-0283","OBJECT_ID":"2021-060AL","EPOCH":"2026-01-13T04:53:06.317376","MEAN_MOTION":13.16595668,"ECCENTRICITY":0.0001433,"INCLINATION":87.9029,"RA_OF_ASC_NODE":259.6402,"ARG_OF_PERICENTER":70.2028,"MEAN_ANOMALY":289.9258,"EPHEMERIS_TYPE":0,"CLASSIFICATION_TYPE":"U","NORAD_CAT_ID":49001,"ELEMENT_SET_NO":999,"REV_AT_EPOCH":21922,"BSTAR":0.00022823065,"MEAN_MOTION_DOT":1.0e-6,"MEAN_MOTION_DDOT":0},{"OBJECT_NAME":"ONEWEB-0284","OBJECT_ID":"2021-060AM","EPOCH":"2026-01-13T04:43:59.222208","MEAN_MOTION":13.16594539,"ECCENTRICITY":0.0001222,"INCLINATION":87.9032,"RA_OF_ASC_NODE":259.6317,"ARG_OF_PERICENTER":89.4614,"MEAN_ANOMALY":270.6657,"EPHEMERIS_TYPE":0,"CLASSIFICATION_TYPE":"U","NORAD_CAT_ID":49002,"ELEMENT_SET_NO":999,"REV_AT_EPOCH":21920,"BSTAR":0.00026371801,"MEAN_MOTION_DOT":1.14e-6,"MEAN_MOTION_DDOT":0},{"OBJECT_NAME":"ONEWEB-0285","OBJECT_ID":"2021-075A","EPOCH":"2026-01-13T01:39:55.887840","MEAN_MOTION":13.12441655,"ECCENTRICITY":0.00017001,"INCLINATION":87.8929,"RA_OF_ASC_NODE":21.4596,"ARG_OF_PERICENTER":89.837,"MEAN_ANOMALY":270.2953,"EPHEMERIS_TYPE":0,"CLASSIFICATION_TYPE":"U","NORAD_CAT_ID":49075,"ELEMENT_SET_NO":999,"REV_AT_EPOCH":21486,"BSTAR":0.00036405692,"MEAN_MOTION_DOT":1.44e-6,"MEAN_MOTION_DDOT":0},{"OBJECT_NAME":"ONEWEB-0286","OBJECT_ID":"2021-075B","EPOCH":"2026-01-13T06:44:29.162976","MEAN_MOTION":13.12443621,"ECCENTRICITY":0.00019679,"INCLINATION":87.8923,"RA_OF_ASC_NODE":21.4489,"ARG_OF_PERICENTER":91.7396,"MEAN_ANOMALY":268.3958,"EPHEMERIS_TYPE":0,"CLASSIFICATION_TYPE":"U","NORAD_CAT_ID":49076,"ELEMENT_SET_NO":999,"REV_AT_EPOCH":21424,"BSTAR":-0.00095442731,"MEAN_MOTION_DOT":-3.31e-6,"MEAN_MOTION_DDOT":0},{"OBJECT_NAME":"ONEWEB-0287","OBJECT_ID":"2021-075C","EPOCH":"2026-01-13T07:59:14.965440","MEAN_MOTION":13.1764714,"ECCENTRICITY":0.00021982,"INCLINATION":87.9092,"RA_OF_ASC_NODE":36.6469,"ARG_OF_PERICENTER":100.548,"MEAN_ANOMALY":259.5899,"EPHEMERIS_TYPE":0,"CLASSIFICATION_TYPE":"U","NORAD_CAT_ID":49077,"ELEMENT_SET_NO":999,"REV_AT_EPOCH":21323,"BSTAR":2.2787596e-5,"MEAN_MOTION_DOT":2.2e-7,"MEAN_MOTION_DDOT":0},{"OBJECT_NAME":"ONEWEB-0288","OBJECT_ID":"2021-075D","EPOCH":"2026-01-13T06:10:31.520928","MEAN_MOTION":13.12444087,"ECCENTRICITY":0.00017253,"INCLINATION":87.8926,"RA_OF_ASC_NODE":21.4172,"ARG_OF_PERICENTER":93.7085,"MEAN_ANOMALY":266.4241,"EPHEMERIS_TYPE":0,"CLASSIFICATION_TYPE":"U","NORAD_CAT_ID":49078,"ELEMENT_SET_NO":999,"REV_AT_EPOCH":21486,"BSTAR":-4.0980836e-5,"MEAN_MOTION_DOT":-2.0e-8,"MEAN_MOTION_DDOT":0},{"OBJECT_NAME":"ONEWEB-0289","OBJECT_ID":"2021-075E","EPOCH":"2026-01-13T07:05:35.717856","MEAN_MOTION":13.17649405,"ECCENTRICITY":0.00014863,"INCLINATION":87.9087,"RA_OF_ASC_NODE":36.6669,"ARG_OF_PERICENTER":103.5156,"MEAN_ANOMALY":256.6141,"EPHEMERIS_TYPE":0,"CLASSIFICATION_TYPE":"U","NORAD_CAT_ID":49079,"ELEMENT_SET_NO":999,"REV_AT_EPOCH":21380,"BSTAR":-5.9314611e-5,"MEAN_MOTION_DOT":-1.0e-7,"MEAN_MOTION_DDOT":0},{"OBJECT_NAME":"ONEWEB-0290","OBJECT_ID":"2021-075F","EPOCH":"2026-01-13T02:48:12.915360","MEAN_MOTION":13.17649903,"ECCENTRICITY":0.00012284,"INCLINATION":87.9096,"RA_OF_ASC_NODE":36.6671,"ARG_OF_PERICENTER":98.5413,"MEAN_ANOMALY":261.5858,"EPHEMERIS_TYPE":0,"CLASSIFICATION_TYPE":"U","NORAD_CAT_ID":49080,"ELEMENT_SET_NO":999,"REV_AT_EPOCH":21319,"BSTAR":-0.00011368006,"MEAN_MOTION_DOT":-3.1e-7,"MEAN_MOTION_DDOT":0},{"OBJECT_NAME":"ONEWEB-0291","OBJECT_ID":"2021-075G","EPOCH":"2026-01-13T02:26:20.588352","MEAN_MOTION":13.17650233,"ECCENTRICITY":0.00019111,"INCLINATION":87.9099,"RA_OF_ASC_NODE":36.6777,"ARG_OF_PERICENTER":105.8365,"MEAN_ANOMALY":254.2978,"EPHEMERIS_TYPE":0,"CLASSIFICATION_TYPE":"U","NORAD_CAT_ID":49081,"ELEMENT_SET_NO":999,"REV_AT_EPOCH":21318,"BSTAR":-4.2186103e-5,"MEAN_MOTION_DOT":-3.0e-8,"MEAN_MOTION_DDOT":0},{"OBJECT_NAME":"ONEWEB-0293","OBJECT_ID":"2021-075H","EPOCH":"2026-01-13T03:02:47.630688","MEAN_MOTION":13.17650542,"ECCENTRICITY":0.00016697,"INCLINATION":87.9087,"RA_OF_ASC_NODE":36.6897,"ARG_OF_PERICENTER":97.2208,"MEAN_ANOMALY":262.9113,"EPHEMERIS_TYPE":0,"CLASSIFICATION_TYPE":"U","NORAD_CAT_ID":49082,"ELEMENT_SET_NO":999,"REV_AT_EPOCH":21321,"BSTAR":-5.769612e-6,"MEAN_MOTION_DOT":1.1e-7,"MEAN_MOTION_DDOT":0},{"OBJECT_NAME":"ONEWEB-0294","OBJECT_ID":"2021-075J","EPOCH":"2026-01-13T06:20:16.903392","MEAN_MOTION":13.12443951,"ECCENTRICITY":0.00014586,"INCLINATION":87.8929,"RA_OF_ASC_NODE":21.4179,"ARG_OF_PERICENTER":97.6467,"MEAN_ANOMALY":262.4827,"EPHEMERIS_TYPE":0,"CLASSIFICATION_TYPE":"U","NORAD_CAT_ID":49083,"ELEMENT_SET_NO":999,"REV_AT_EPOCH":21425,"BSTAR":-0.00075599587,"MEAN_MOTION_DOT":-2.59e-6,"MEAN_MOTION_DDOT":0},{"OBJECT_NAME":"ONEWEB-0295","OBJECT_ID":"2021-075K","EPOCH":"2026-01-13T03:01:33.004416","MEAN_MOTION":13.17651232,"ECCENTRICITY":0.00019567,"INCLINATION":87.9086,"RA_OF_ASC_NODE":36.6943,"ARG_OF_PERICENTER":103.5744,"MEAN_ANOMALY":256.5606,"EPHEMERIS_TYPE":0,"CLASSIFICATION_TYPE":"U","NORAD_CAT_ID":49084,"ELEMENT_SET_NO":999,"REV_AT_EPOCH":21317,"BSTAR":1.2547859e-5,"MEAN_MOTION_DOT":1.8e-7,"MEAN_MOTION_DDOT":0},{"OBJECT_NAME":"ONEWEB-0296","OBJECT_ID":"2021-075L","EPOCH":"2026-01-13T05:51:00.736128","MEAN_MOTION":13.1244457,"ECCENTRICITY":0.00018511,"INCLINATION":87.8927,"RA_OF_ASC_NODE":21.4255,"ARG_OF_PERICENTER":101.2792,"MEAN_ANOMALY":258.8545,"EPHEMERIS_TYPE":0,"CLASSIFICATION_TYPE":"U","NORAD_CAT_ID":49085,"ELEMENT_SET_NO":999,"REV_AT_EPOCH":21425,"BSTAR":0.00099690057,"MEAN_MOTION_DOT":3.71e-6,"MEAN_MOTION_DDOT":0},{"OBJECT_NAME":"ONEWEB-0297","OBJECT_ID":"2021-075M","EPOCH":"2026-01-13T06:34:55.409088","MEAN_MOTION":13.1244396,"ECCENTRICITY":0.00018436,"INCLINATION":87.8918,"RA_OF_ASC_NODE":21.449,"ARG_OF_PERICENTER":92.5008,"MEAN_ANOMALY":267.6332,"EPHEMERIS_TYPE":0,"CLASSIFICATION_TYPE":"U","NORAD_CAT_ID":49086,"ELEMENT_SET_NO":999,"REV_AT_EPOCH":21486,"BSTAR":-0.0012598469,"MEAN_MOTION_DOT":-4.4e-6,"MEAN_MOTION_DDOT":0},{"OBJECT_NAME":"ONEWEB-0298","OBJECT_ID":"2021-075N","EPOCH":"2026-01-13T03:07:51.061440","MEAN_MOTION":13.17649388,"ECCENTRICITY":0.00019525,"INCLINATION":87.9087,"RA_OF_ASC_NODE":36.6901,"ARG_OF_PERICENTER":91.5923,"MEAN_ANOMALY":268.5432,"EPHEMERIS_TYPE":0,"CLASSIFICATION_TYPE":"U","NORAD_CAT_ID":49087,"ELEMENT_SET_NO":999,"REV_AT_EPOCH":21320,"BSTAR":-0.00023970414,"MEAN_MOTION_DOT":-8.0e-7,"MEAN_MOTION_DDOT":0},{"OBJECT_NAME":"ONEWEB-0299","OBJECT_ID":"2021-075P","EPOCH":"2026-01-13T06:48:46.526112","MEAN_MOTION":13.17650693,"ECCENTRICITY":0.00019505,"INCLINATION":87.9097,"RA_OF_ASC_NODE":36.6245,"ARG_OF_PERICENTER":97.0871,"MEAN_ANOMALY":263.0482,"EPHEMERIS_TYPE":0,"CLASSIFICATION_TYPE":"U","NORAD_CAT_ID":49088,"ELEMENT_SET_NO":999,"REV_AT_EPOCH":21320,"BSTAR":0.00012301529,"MEAN_MOTION_DOT":6.1e-7,"MEAN_MOTION_DDOT":0},{"OBJECT_NAME":"ONEWEB-0300","OBJECT_ID":"2021-075Q","EPOCH":"2026-01-13T06:23:57.831648","MEAN_MOTION":13.12438455,"ECCENTRICITY":0.00018215,"INCLINATION":87.8929,"RA_OF_ASC_NODE":21.4127,"ARG_OF_PERICENTER":82.7681,"MEAN_ANOMALY":277.3655,"EPHEMERIS_TYPE":0,"CLASSIFICATION_TYPE":"U","NORAD_CAT_ID":49089,"ELEMENT_SET_NO":999,"REV_AT_EPOCH":21488,"BSTAR":-0.0017374189,"MEAN_MOTION_DOT":-6.12e-6,"MEAN_MOTION_DDOT":0}]
