ONEWEB-0283             
1 49001U 21060AL  26013.20354534  .00000100  00000+0  22823-3 0  9991
2 49001  87.9029 259.6402 0001433  70.2028 289.9258 13.16595668219228
ONEWEB-0284             
1 49002U 21060AM  26013.19721322  .00000114  00000+0  26372-3 0  9991
2 49002  87.9032 259.6317 0001222  89.4614 270.6657 13.16594539219201
ONEWEB-0285             
1 49075U 21075A   26013.06939685  .00000144  00000+0  36406-3 0  9998
2 49075  87.8929  21.4596 0001700  89.8370 270.2953 13.12441655214861
ONEWEB-0286             
1 49076U 21075B   26013.28089309 -.00000331  00000+0 -95443-3 0  9998
2 49076  87.8923  21.4489 0001967  91.7396 268.3958 13.12443621214242
ONEWEB-0287             
1 49077U 21075C   26013.33281210  .00000022  00000+0  22788-4 0  9998
2 49077  87.9092  36.6469 0002198 100.5480 259.5899 13.17647140213238
ONEWEB-0288             
1 49078U 21075D   26013.25730927 -.00000002  00000+0 -40981-4 0  9999
2 49078  87.8926  21.4172 0001725  93.7085 266.4241 13.12444087214864
ONEWEB-0289             
1 49079U 21075E   26013.29555229 -.00000010  00000+0 -59315-4 0  9994
2 49079  87.9087  36.6669 0001486 103.5156 256.6141 13.17649405213805
ONEWEB-0290             
1 49080U 21075F   26013.11681615 -.00000031  00000+0 -11368-3 0  9994
2 49080  87.9096  36.6671 0001228  98.5413 261.5858 13.17649903213198
ONEWEB-0291             
1 49081U 21075G   26013.10162718 -.00000003  00000+0 -42186-4 0  9994
2 49081  87.9099  36.6777 0001911 105.8365 254.2978 13.17650233213185
ONEWEB-0293             
1 49082U 21075H   26013.12694017  .00000011  00000+0 -57696-5 0  9990
2 49082  87.9087  36.6897 0001669  97.2208 262.9113 13.17650542213210
ONEWEB-0294             
1 49083U 21075J   26013.26408453 -.00000259  00000+0 -75600-3 0  9991
2 49083  87.8929  21.4179 0001458  97.6467 262.4827 13.12443951214258
ONEWEB-0295             
1 49084U 21075K   26013.12607644  .00000018  00000+0  12548-4 0  9994
2 49084  87.9086  36.6943 0001956 103.5744 256.5606 13.17651232213176
ONEWEB-0296             
1 49085U 21075L   26013.24375852  .00000371  00000+0  99690-3 0  9995
2 49085  87.8927  21.4255 0001851 101.2792 258.8545 13.12444570214257
ONEWEB-0297             
1 49086U 21075M   26013.27425242 -.00000440  00000+0 -12598-2 0  9998
2 49086  87.8918  21.4490 0001843  92.5008 267.6332 13.12443960214863
ONEWEB-0298             
1 49087U 21075N   26013.13045210 -.00000080  00000+0 -23970-3 0  9994
2 49087  87.9087  36.6901 0001952  91.5923 268.5432 13.17649388213208
ONEWEB-0299             
1 49088U 21075P   26013.28387183  .00000061  00000+0  12302-3 0  9993
2 49088  87.9097  36.6245 0001950  97.0871 263.0482 13.17650693213208
ONEWEB-0300             
1 49089U 21075Q   26013.26664157 -.00000612  00000+0 -17374-2 0  9998
2 49089  87.8929  21.4127 0001821  82.7681 277.3655 13.12438455214880
